[
    {
        "Altitude(m)": 707700.0117859577,
        "Argument of Periapsis(deg)": 0.010251109067964361,
        "Eccentricity": 0.0,
        "Inclination(deg)": 45.0,
        "Latitude(deg)": -18.71191331568789,
        "Longitude(deg)": -96.00579426758041,
        "Mean Anomaly(deg)": -153.25650501726724,
        "RAAN(deg)": 164.9903232526876,
        "Satellite Name": "Constellation 1 738",
        "Satellite Number": 738,
        "Semi-Major Axis(m)": 7083131.272910544,
        "Time(s)": 171
    },
    {
        "Altitude(m)": 707712.8432785945,
        "Argument of Periapsis(deg)": 0.010311057074209765,
        "Eccentricity": 0.0,
        "Inclination(deg)": 45.0,
        "Latitude(deg)": -18.75251672260723,
        "Longitude(deg)": -95.96219653211253,
        "Mean Anomaly(deg)": -153.19580387701734,
        "RAAN(deg)": 164.99026666352202,
        "Satellite Name": "Constellation 1 738",
        "Satellite Number": 738,
        "Semi-Major Axis(m)": 7083131.272910544,
        "Time(s)": 172
    },
    {
        "Altitude(m)": 707725.6841975042,
        "Argument of Periapsis(deg)": 0.010371005080455171,
        "Eccentricity": 0.0,
        "Inclination(deg)": 45.0,
        "Latitude(deg)": -18.793107691518667,
        "Longitude(deg)": -95.91857610309253,
        "Mean Anomaly(deg)": -153.13510273676746,
        "RAAN(deg)": 164.99021007435647,
        "Satellite Name": "Constellation 1 738",
        "Satellite Number": 738,
        "Semi-Major Axis(m)": 7083131.272910544,
        "Time(s)": 173
    },
    {
        "Altitude(m)": 707738.5345016166,
        "Argument of Periapsis(deg)": 0.010430953086700577,
        "Eccentricity": 0.0,
        "Inclination(deg)": 45.0,
        "Latitude(deg)": -18.833686188185723,
        "Longitude(deg)": -95.87493292357698,
        "Mean Anomaly(deg)": -153.07440159651756,
        "RAAN(deg)": 164.99015348519092,
        "Satellite Name": "Constellation 1 738",
        "Satellite Number": 738,
        "Semi-Major Axis(m)": 7083131.272910544,
        "Time(s)": 174
    },
    {
        "Altitude(m)": 707751.3941498109,
        "Argument of Periapsis(deg)": 0.010490901092945983,
        "Eccentricity": 0.0,
        "Inclination(deg)": 45.0,
        "Latitude(deg)": -18.874252178327286,
        "Longitude(deg)": -95.83126693659354,
        "Mean Anomaly(deg)": -153.01370045626769,
        "RAAN(deg)": 164.9900968960253,
        "Satellite Name": "Constellation 1 738",
        "Satellite Number": 738,
        "Semi-Major Axis(m)": 7083131.272910544,
        "Time(s)": 175
    },
    {
        "Altitude(m)": 707764.2631009083,
        "Argument of Periapsis(deg)": 0.010550849099191389,
        "Eccentricity": 0.0,
        "Inclination(deg)": 45.0,
        "Latitude(deg)": -18.914805627617966,
        "Longitude(deg)": -95.78757808514068,
        "Mean Anomaly(deg)": -152.95299931601778,
        "RAAN(deg)": 164.99004030685975,
        "Satellite Name": "Constellation 1 738",
        "Satellite Number": 738,
        "Semi-Major Axis(m)": 7083131.272910544,
        "Time(s)": 176
    },
    {
        "Altitude(m)": 707777.1413136851,
        "Argument of Periapsis(deg)": 0.010610797105436795,
        "Eccentricity": 0.0,
        "Inclination(deg)": 45.0,
        "Latitude(deg)": -18.95534650168775,
        "Longitude(deg)": -95.7438663121879,
        "Mean Anomaly(deg)": -152.89229817576788,
        "RAAN(deg)": 164.9899837176942,
        "Satellite Name": "Constellation 1 738",
        "Satellite Number": 738,
        "Semi-Major Axis(m)": 7083131.272910544,
        "Time(s)": 177
    },
    {
        "Altitude(m)": 707790.0287468673,
        "Argument of Periapsis(deg)": 0.0106707451116822,
        "Eccentricity": 0.0,
        "Inclination(deg)": 45.0,
        "Latitude(deg)": -18.995874766121748,
        "Longitude(deg)": -95.70013172877292,
        "Mean Anomaly(deg)": -152.831597035518,
        "RAAN(deg)": 164.98992712852862,
        "Satellite Name": "Constellation 1 738",
        "Satellite Number": 738,
        "Semi-Major Axis(m)": 7083131.272910544,
        "Time(s)": 178
    },
    {
        "Altitude(m)": 707802.925359131,
        "Argument of Periapsis(deg)": 0.010730693117927606,
        "Eccentricity": 0.0,
        "Inclination(deg)": 45.0,
        "Latitude(deg)": -19.036390386460663,
        "Longitude(deg)": -95.65637394161286,
        "Mean Anomaly(deg)": -152.77089589526807,
        "RAAN(deg)": 164.98987053936307,
        "Satellite Name": "Constellation 1 738",
        "Satellite Number": 738,
        "Semi-Major Axis(m)": 7083131.272910544,
        "Time(s)": 179
    },
    {
        "Altitude(m)": 707815.8311091003,
        "Argument of Periapsis(deg)": 0.01079064112417301,
        "Eccentricity": 0.0,
        "Inclination(deg)": 45.0,
        "Latitude(deg)": -19.076893328199873,
        "Longitude(deg)": -95.61259306168772,
        "Mean Anomaly(deg)": -152.7101947550182,
        "RAAN(deg)": 164.98981395019746,
        "Satellite Name": "Constellation 1 738",
        "Satellite Number": 738,
        "Semi-Major Axis(m)": 7083131.272910544,
        "Time(s)": 180
    },
    {
        "Altitude(m)": 707828.7459553493,
        "Argument of Periapsis(deg)": 0.010850589130418416,
        "Eccentricity": 0.0,
        "Inclination(deg)": 45.0,
        "Latitude(deg)": -19.11738355678996,
        "Longitude(deg)": -95.56878903185111,
        "Mean Anomaly(deg)": -152.6494936147682,
        "RAAN(deg)": 164.9897573610319,
        "Satellite Name": "Constellation 1 738",
        "Satellite Number": 738,
        "Semi-Major Axis(m)": 7083131.272910544,
        "Time(s)": 181
    },
    {
        "Altitude(m)": 707841.6698564104,
        "Argument of Periapsis(deg)": 0.01091053713666382,
        "Eccentricity": 0.0,
        "Inclination(deg)": 45.0,
        "Latitude(deg)": -19.157861037636106,
        "Longitude(deg)": -95.52496179492837,
        "Mean Anomaly(deg)": -152.58879247451839,
        "RAAN(deg)": 164.98970077186635,
        "Satellite Name": "Constellation 1 738",
        "Satellite Number": 738,
        "Semi-Major Axis(m)": 7083131.272910544,
        "Time(s)": 182
    },
    {
        "Altitude(m)": 707854.6027707508,
        "Argument of Periapsis(deg)": 0.010970485142909228,
        "Eccentricity": 0.0,
        "Inclination(deg)": 45.0,
        "Latitude(deg)": -19.198325736098514,
        "Longitude(deg)": -95.48111129371566,
        "Mean Anomaly(deg)": -152.52809133426848,
        "RAAN(deg)": 164.98964418270077,
        "Satellite Name": "Constellation 1 738",
        "Satellite Number": 738,
        "Semi-Major Axis(m)": 7083131.272910544,
        "Time(s)": 183
    },
    {
        "Altitude(m)": 707867.5446568056,
        "Argument of Periapsis(deg)": 0.011030433149154634,
        "Eccentricity": 0.0,
        "Inclination(deg)": 45.0,
        "Latitude(deg)": -19.238777617491905,
        "Longitude(deg)": -95.43723747098056,
        "Mean Anomaly(deg)": -152.46739019401855,
        "RAAN(deg)": 164.98958759353522,
        "Satellite Name": "Constellation 1 738",
        "Satellite Number": 738,
        "Semi-Major Axis(m)": 7083131.272910544,
        "Time(s)": 184
    },
    {
        "Altitude(m)": 707880.4954729513,
        "Argument of Periapsis(deg)": 0.01109038115540004,
        "Eccentricity": 0.0,
        "Inclination(deg)": 45.0,
        "Latitude(deg)": -19.27921664708524,
        "Longitude(deg)": -95.39334043755949,
        "Mean Anomaly(deg)": -152.4066890537687,
        "RAAN(deg)": 164.98953100436964,
        "Satellite Name": "Constellation 1 738",
        "Satellite Number": 738,
        "Semi-Major Axis(m)": 7083131.272910544,
        "Time(s)": 185
    },
    {
        "Altitude(m)": 707893.4551775168,
        "Argument of Periapsis(deg)": 0.011150329161645444,
        "Eccentricity": 0.0,
        "Inclination(deg)": 45.0,
        "Latitude(deg)": -19.319642790102392,
        "Longitude(deg)": -95.3494197999684,
        "Mean Anomaly(deg)": -152.3459879135188,
        "RAAN(deg)": 164.98947441520406,
        "Satellite Name": "Constellation 1 738",
        "Satellite Number": 738,
        "Semi-Major Axis(m)": 7083131.272910544,
        "Time(s)": 186
    },
    {
        "Altitude(m)": 707906.4237287809,
        "Argument of Periapsis(deg)": 0.01121027716789085,
        "Eccentricity": 0.0,
        "Inclination(deg)": 45.0,
        "Latitude(deg)": -19.360056011721074,
        "Longitude(deg)": -95.30547566898643,
        "Mean Anomaly(deg)": -152.2852867732689,
        "RAAN(deg)": 164.9894178260385,
        "Satellite Name": "Constellation 1 738",
        "Satellite Number": 738,
        "Semi-Major Axis(m)": 7083131.272910544,
        "Time(s)": 187
    },
    {
        "Altitude(m)": 707919.401084983,
        "Argument of Periapsis(deg)": 0.011270225174136258,
        "Eccentricity": 0.0,
        "Inclination(deg)": 45.0,
        "Latitude(deg)": -19.400456277073232,
        "Longitude(deg)": -95.26150798726721,
        "Mean Anomaly(deg)": -152.22458563301902,
        "RAAN(deg)": 164.98936123687292,
        "Satellite Name": "Constellation 1 738",
        "Satellite Number": 738,
        "Semi-Major Axis(m)": 7083131.272910544,
        "Time(s)": 188
    },
    {
        "Altitude(m)": 707932.3872043061,
        "Argument of Periapsis(deg)": 0.011330173180381662,
        "Eccentricity": 0.0,
        "Inclination(deg)": 45.0,
        "Latitude(deg)": -19.440843551245013,
        "Longitude(deg)": -95.21751669743576,
        "Mean Anomaly(deg)": -152.16388449276906,
        "RAAN(deg)": 164.98930464770737,
        "Satellite Name": "Constellation 1 738",
        "Satellite Number": 738,
        "Semi-Major Axis(m)": 7083131.272910544,
        "Time(s)": 189
    }
]